STARLINK-36093          
1 67015U 25293N   25353.25002315 -.01127642  38851-3 -29234-2 0  9991
2 67015  69.9946 304.8656 0003951 270.0507 350.4151 15.94880744  1308
STARLINK-36120          
1 67016U 25293P   25353.25002315 -.01121356  38425-3 -29174-2 0  9998
2 67016  69.9948 304.8684 0003913 269.6957 348.4719 15.94813825  1306
STARLINK-35498          
1 67017U 25293Q   25353.25002315 -.01141727  39779-3 -29494-2 0  9991
2 67017  69.9943 304.8630 0003944 271.0559 351.5421 15.94949617  1306
STARLINK-36106          
1 67018U 25293R   25353.25002315 -.01136740  39482-3 -29275-2 0  9999
2 67018  69.9944 304.8601 0004009 272.4859 352.2700 15.95006167  1300
STARLINK-35688          
1 67019U 25293S   25353.25002315 -.01140203  39728-3 -29276-2 0  9993
2 67019  69.9941 304.8577 0003942 270.9169 355.8447 15.95063458  1350
STARLINK-36172          
1 67020U 25293T   25353.25002315 -.01155632  40760-3 -29546-2 0  9995
2 67020  69.9940 304.8549 0003926 272.7389 356.5816 15.95145541  1303
STARLINK-36184          
1 67021U 25293U   25353.25002315 -.01147072  40229-3 -29234-2 0  9999
2 67021  69.9942 304.8517 0003988 270.8146   0.8436 15.95203231  1307
STARLINK-36209          
1 67022U 25293V   25353.25002315 -.01164679  41414-3 -29546-2 0  9995
2 67022  69.9939 304.8488 0003895 269.7296   4.6640 15.95292272  1303
STARLINK-36191          
1 67023U 25293W   25353.25002315 -.01159639  41109-3 -29323-2 0  9990
2 67023  69.9939 304.8455 0003945 272.9258   3.7048 15.95351955  1304
STARLINK-36192          
1 67024U 25293X   25353.25002315 -.01174979  42154-3 -29584-2 0  9995
2 67024  69.9939 304.8428 0003916 270.4958   8.6732 15.95434082  1300
STARLINK-36178          
1 67025U 25293Y   25353.25002315 -.01178155  42391-3 -29567-2 0  9990
2 67025  69.9938 304.8401 0003937 270.1797  11.0342 15.95495647  1301
STARLINK-36176          
1 67026U 25293Z   25353.25002315 -.01185699  42954-3 -29541-2 0  9999
2 67026  69.9935 304.8349 0003956 271.0817  14.6765 15.95631479  1307
