CCSDS_OMM_VERS = 2.0
CREATION_DATE  = 
ORIGINATOR     = 

OBJECT_NAME    = STARLINK-36093
OBJECT_ID      = 2025-293N
CENTER_NAME    = EARTH
REF_FRAME      = TEME
TIME_SYSTEM    = UTC
MEAN_ELEMENT_THEORY = SGP/SGP4

EPOCH          = 2025-12-19T06:00:02.000160
MEAN_MOTION    = 15.94880744
ECCENTRICITY   = .00039516
INCLINATION    = 69.9946
RA_OF_ASC_NODE = 304.8656
ARG_OF_PERICENTER = 270.0507
MEAN_ANOMALY   = 350.4151

EPHEMERIS_TYPE = 0
CLASSIFICATION_TYPE = U
NORAD_CAT_ID   = 67015
ELEMENT_SET_NO = 999
REV_AT_EPOCH   = 130
BSTAR          = -.29233909E-2
MEAN_MOTION_DOT = -.1127642E-1
MEAN_MOTION_DDOT = .38850589E-3

CCSDS_OMM_VERS = 2.0
CREATION_DATE  = 
ORIGINATOR     = 

OBJECT_NAME    = STARLINK-36120
OBJECT_ID      = 2025-293P
CENTER_NAME    = EARTH
REF_FRAME      = TEME
TIME_SYSTEM    = UTC
MEAN_ELEMENT_THEORY = SGP/SGP4

EPOCH          = 2025-12-19T06:00:02.000160
MEAN_MOTION    = 15.94813825
ECCENTRICITY   = .00039133
INCLINATION    = 69.9948
RA_OF_ASC_NODE = 304.8684
ARG_OF_PERICENTER = 269.6957
MEAN_ANOMALY   = 348.4719

EPHEMERIS_TYPE = 0
CLASSIFICATION_TYPE = U
NORAD_CAT_ID   = 67016
ELEMENT_SET_NO = 999
REV_AT_EPOCH   = 130
BSTAR          = -.29173849E-2
MEAN_MOTION_DOT = -.1121356E-1
MEAN_MOTION_DDOT = .38425356E-3

CCSDS_OMM_VERS = 2.0
CREATION_DATE  = 
ORIGINATOR     = 

OBJECT_NAME    = STARLINK-35498
OBJECT_ID      = 2025-293Q
CENTER_NAME    = EARTH
REF_FRAME      = TEME
TIME_SYSTEM    = UTC
MEAN_ELEMENT_THEORY = SGP/SGP4

EPOCH          = 2025-12-19T06:00:02.000160
MEAN_MOTION    = 15.94949617
ECCENTRICITY   = .00039444
INCLINATION    = 69.9943
RA_OF_ASC_NODE = 304.8630
ARG_OF_PERICENTER = 271.0559
MEAN_ANOMALY   = 351.5421

EPHEMERIS_TYPE = 0
CLASSIFICATION_TYPE = U
NORAD_CAT_ID   = 67017
ELEMENT_SET_NO = 999
REV_AT_EPOCH   = 130
BSTAR          = -.29493915E-2
MEAN_MOTION_DOT = -.1141727E-1
MEAN_MOTION_DDOT = .39779052E-3

CCSDS_OMM_VERS = 2.0
CREATION_DATE  = 
ORIGINATOR     = 

OBJECT_NAME    = STARLINK-36106
OBJECT_ID      = 2025-293R
CENTER_NAME    = EARTH
REF_FRAME      = TEME
TIME_SYSTEM    = UTC
MEAN_ELEMENT_THEORY = SGP/SGP4

EPOCH          = 2025-12-19T06:00:02.000160
MEAN_MOTION    = 15.95006167
ECCENTRICITY   = .00040092
INCLINATION    = 69.9944
RA_OF_ASC_NODE = 304.8601
ARG_OF_PERICENTER = 272.4859
MEAN_ANOMALY   = 352.2700

EPHEMERIS_TYPE = 0
CLASSIFICATION_TYPE = U
NORAD_CAT_ID   = 67018
ELEMENT_SET_NO = 999
REV_AT_EPOCH   = 130
BSTAR          = -.29274604E-2
MEAN_MOTION_DOT = -.113674E-1
MEAN_MOTION_DDOT = .39482144E-3

CCSDS_OMM_VERS = 2.0
CREATION_DATE  = 
ORIGINATOR     = 

OBJECT_NAME    = STARLINK-35688
OBJECT_ID      = 2025-293S
CENTER_NAME    = EARTH
REF_FRAME      = TEME
TIME_SYSTEM    = UTC
MEAN_ELEMENT_THEORY = SGP/SGP4

EPOCH          = 2025-12-19T06:00:02.000160
MEAN_MOTION    = 15.95063458
ECCENTRICITY   = .00039425
INCLINATION    = 69.9941
RA_OF_ASC_NODE = 304.8577
ARG_OF_PERICENTER = 270.9169
MEAN_ANOMALY   = 355.8447

EPHEMERIS_TYPE = 0
CLASSIFICATION_TYPE = U
NORAD_CAT_ID   = 67019
ELEMENT_SET_NO = 999
REV_AT_EPOCH   = 135
BSTAR          = -.29275651E-2
MEAN_MOTION_DOT = -.1140203E-1
MEAN_MOTION_DDOT = .39727972E-3

CCSDS_OMM_VERS = 2.0
CREATION_DATE  = 
ORIGINATOR     = 

OBJECT_NAME    = STARLINK-36172
OBJECT_ID      = 2025-293T
CENTER_NAME    = EARTH
REF_FRAME      = TEME
TIME_SYSTEM    = UTC
MEAN_ELEMENT_THEORY = SGP/SGP4

EPOCH          = 2025-12-19T06:00:02.000160
MEAN_MOTION    = 15.95145541
ECCENTRICITY   = .00039265
INCLINATION    = 69.9940
RA_OF_ASC_NODE = 304.8549
ARG_OF_PERICENTER = 272.7389
MEAN_ANOMALY   = 356.5816

EPHEMERIS_TYPE = 0
CLASSIFICATION_TYPE = U
NORAD_CAT_ID   = 67020
ELEMENT_SET_NO = 999
REV_AT_EPOCH   = 130
BSTAR          = -.29545692E-2
MEAN_MOTION_DOT = -.1155632E-1
MEAN_MOTION_DDOT = .40760036E-3

CCSDS_OMM_VERS = 2.0
CREATION_DATE  = 
ORIGINATOR     = 

OBJECT_NAME    = STARLINK-36184
OBJECT_ID      = 2025-293U
CENTER_NAME    = EARTH
REF_FRAME      = TEME
TIME_SYSTEM    = UTC
MEAN_ELEMENT_THEORY = SGP/SGP4

EPOCH          = 2025-12-19T06:00:02.000160
MEAN_MOTION    = 15.95203231
ECCENTRICITY   = .00039889
INCLINATION    = 69.9942
RA_OF_ASC_NODE = 304.8517
ARG_OF_PERICENTER = 270.8146
MEAN_ANOMALY   = 0.8436

EPHEMERIS_TYPE = 0
CLASSIFICATION_TYPE = U
NORAD_CAT_ID   = 67021
ELEMENT_SET_NO = 999
REV_AT_EPOCH   = 130
BSTAR          = -.29233689E-2
MEAN_MOTION_DOT = -.1147072E-1
MEAN_MOTION_DDOT = .40228885E-3

CCSDS_OMM_VERS = 2.0
CREATION_DATE  = 
ORIGINATOR     = 

OBJECT_NAME    = STARLINK-36209
OBJECT_ID      = 2025-293V
CENTER_NAME    = EARTH
REF_FRAME      = TEME
TIME_SYSTEM    = UTC
MEAN_ELEMENT_THEORY = SGP/SGP4

EPOCH          = 2025-12-19T06:00:02.000160
MEAN_MOTION    = 15.95292272
ECCENTRICITY   = .00038959
INCLINATION    = 69.9939
RA_OF_ASC_NODE = 304.8488
ARG_OF_PERICENTER = 269.7296
MEAN_ANOMALY   = 4.6640

EPHEMERIS_TYPE = 0
CLASSIFICATION_TYPE = U
NORAD_CAT_ID   = 67022
ELEMENT_SET_NO = 999
REV_AT_EPOCH   = 130
BSTAR          = -.29546482E-2
MEAN_MOTION_DOT = -.1164679E-1
MEAN_MOTION_DDOT = .41413678E-3

CCSDS_OMM_VERS = 2.0
CREATION_DATE  = 
ORIGINATOR     = 

OBJECT_NAME    = STARLINK-36191
OBJECT_ID      = 2025-293W
CENTER_NAME    = EARTH
REF_FRAME      = TEME
TIME_SYSTEM    = UTC
MEAN_ELEMENT_THEORY = SGP/SGP4

EPOCH          = 2025-12-19T06:00:02.000160
MEAN_MOTION    = 15.95351955
ECCENTRICITY   = .00039458
INCLINATION    = 69.9939
RA_OF_ASC_NODE = 304.8455
ARG_OF_PERICENTER = 272.9258
MEAN_ANOMALY   = 3.7048

EPHEMERIS_TYPE = 0
CLASSIFICATION_TYPE = U
NORAD_CAT_ID   = 67023
ELEMENT_SET_NO = 999
REV_AT_EPOCH   = 130
BSTAR          = -.29322859E-2
MEAN_MOTION_DOT = -.1159639E-1
MEAN_MOTION_DDOT = .41109158E-3

CCSDS_OMM_VERS = 2.0
CREATION_DATE  = 
ORIGINATOR     = 

OBJECT_NAME    = STARLINK-36192
OBJECT_ID      = 2025-293X
CENTER_NAME    = EARTH
REF_FRAME      = TEME
TIME_SYSTEM    = UTC
MEAN_ELEMENT_THEORY = SGP/SGP4

EPOCH          = 2025-12-19T06:00:02.000160
MEAN_MOTION    = 15.95434082
ECCENTRICITY   = .00039166
INCLINATION    = 69.9939
RA_OF_ASC_NODE = 304.8428
ARG_OF_PERICENTER = 270.4958
MEAN_ANOMALY   = 8.6732

EPHEMERIS_TYPE = 0
CLASSIFICATION_TYPE = U
NORAD_CAT_ID   = 67024
ELEMENT_SET_NO = 999
REV_AT_EPOCH   = 130
BSTAR          = -.29584129E-2
MEAN_MOTION_DOT = -.1174979E-1
MEAN_MOTION_DDOT = .42153837E-3

CCSDS_OMM_VERS = 2.0
CREATION_DATE  = 
ORIGINATOR     = 

OBJECT_NAME    = STARLINK-36178
OBJECT_ID      = 2025-293Y
CENTER_NAME    = EARTH
REF_FRAME      = TEME
TIME_SYSTEM    = UTC
MEAN_ELEMENT_THEORY = SGP/SGP4

EPOCH          = 2025-12-19T06:00:02.000160
MEAN_MOTION    = 15.95495647
ECCENTRICITY   = .00039375
INCLINATION    = 69.9938
RA_OF_ASC_NODE = 304.8401
ARG_OF_PERICENTER = 270.1797
MEAN_ANOMALY   = 11.0342

EPHEMERIS_TYPE = 0
CLASSIFICATION_TYPE = U
NORAD_CAT_ID   = 67025
ELEMENT_SET_NO = 999
REV_AT_EPOCH   = 130
BSTAR          = -.29566706E-2
MEAN_MOTION_DOT = -.1178155E-1
MEAN_MOTION_DDOT = .42391435E-3

CCSDS_OMM_VERS = 2.0
CREATION_DATE  = 
ORIGINATOR     = 

OBJECT_NAME    = STARLINK-36176
OBJECT_ID      = 2025-293Z
CENTER_NAME    = EARTH
REF_FRAME      = TEME
TIME_SYSTEM    = UTC
MEAN_ELEMENT_THEORY = SGP/SGP4

EPOCH          = 2025-12-19T06:00:02.000160
MEAN_MOTION    = 15.95631479
ECCENTRICITY   = .00039561
INCLINATION    = 69.9935
RA_OF_ASC_NODE = 304.8349
ARG_OF_PERICENTER = 271.0817
MEAN_ANOMALY   = 14.6765

EPHEMERIS_TYPE = 0
CLASSIFICATION_TYPE = U
NORAD_CAT_ID   = 67026
ELEMENT_SET_NO = 999
REV_AT_EPOCH   = 130
BSTAR          = -.29541061E-2
MEAN_MOTION_DOT = -.1185699E-1
MEAN_MOTION_DDOT = .42954137E-3

